TRANSPORTER-16 OBJECT CR
1 68503U 26067CR  26105.81144892  .00001022  00000+0  10968-3 0  9995
2 68503  97.7523  65.0213 0002863 260.2241  99.8654 14.90731848  2424
