{
  "norad_id": 68503,
  "name": "TRANSPORTER-16 OBJECT CR",
  "history": [
    {
      "epoch": "2026-04-15T19:28:29.185824Z",
      "apogee_km": 597.649586694828,
      "perigee_km": 593.6550001875439,
      "latitude_deg": 1.994951260046241e-05,
      "longitude_deg": -71.06846634476356,
      "height_km": 599.0356046056512,
      "semi_major_axis_km": 6973.789293441186,
      "eccentricity": 0.0002864,
      "inclination_deg": 97.7523,
      "raan_deg": 65.0213,
      "arg_perigee_deg": 260.2241,
      "mean_anomaly_deg": 99.8654,
      "mean_motion_rev_day": 14.90731848
    }
  ]
}